     2.10           NAVIGATION                              RINEX VERSION / TYPE
fic2rin                                 08/14/2008 03:52:45 PGM / RUN BY / DATE
                                                            END OF HEADER
27 08  8 13 18  0  0.0  .209857709706D-03  .272848410532D-11  .000000000000D+00
     .121000000000D+03 -.584375000000D+02  .438875423780D-08  .219148614408D+01
    -.331178307533D-05  .211332764011D-01  .169128179550D-05  .515374568939D+04
     .324000000000D+06  .258907675743D-06  .154012949255D+01 -.258907675743D-06
     .970181492091D+00  .352593750000D+03 -.169373573142D+01 -.789604318761D-08
    -.610739725475D-10  .100000000000D+01  .149200000000D+04  .000000000000D+00
     .240000000000D+01  .000000000000D+00 -.419095158577D-08  .121000000000D+03
     .316806000000D+06  .400000000000D+01
30 08  8 13 18  0  0.0  .909785740077D-04  .204636307899D-11  .000000000000D+00
     .110000000000D+02 -.110875000000D+03  .460090593191D-08  .140515826991D+01
    -.585056841373D-05  .109576929826D-01  .956468284130D-05  .515371095467D+04
     .324000000000D+06 -.234693288803D-06  .260720782591D+01 -.175088644028D-06
     .949667448295D+00  .191562500000D+03  .138869057853D+01 -.803462038848D-08
     .110004582132D-09  .100000000000D+01  .149200000000D+04  .000000000000D+00
     .240000000000D+01  .000000000000D+00 -.745058059692D-08  .110000000000D+02
     .316806000000D+06  .400000000000D+01
31 08  8 13 18  0  0.0 -.250702723861D-04 -.113686837722D-12  .000000000000D+00
     .870000000000D+02 -.693437500000D+02  .458983404215D-08 -.247454752083D+01
    -.339560210705D-05  .663663737942D-02  .183843076229D-05  .515379893875D+04
     .324000000000D+06  .707805156708D-07  .159668970470D+01  .108033418655D-06
     .968610954443D+00  .347156250000D+03 -.122255450629D+01 -.815569686037D-08
    -.275011455331D-10  .100000000000D+01  .149200000000D+04  .000000000000D+00
     .240000000000D+01  .000000000000D+00 -.130385160446D-07  .870000000000D+02
     .316806000000D+06  .400000000000D+01
32 08  8 13 18  0  0.0  .313087832183D-03  .170530256582D-11  .000000000000D+00
     .610000000000D+02  .672812500000D+02  .395909348356D-08 -.140058128054D+01
     .371597707272D-05  .139265087200D-01  .102631747723D-04  .515380074501D+04
     .324000000000D+06 -.206753611565D-06 -.409290768558D+00  .249594449997D-06
     .968273555794D+00  .189406250000D+03 -.129901850010D+01 -.779746765297D-08
    -.141434462742D-09  .100000000000D+01  .149200000000D+04  .000000000000D+00
     .240000000000D+01  .000000000000D+00 -.325962901115D-08  .610000000000D+02
     .316806000000D+06  .400000000000D+01
20 08  8 13 17 59 44.0  .107555650175D-03 -.102318153949D-11  .000000000000D+00
     .300000000000D+02  .495625000000D+02  .444625663301D-08  .190625926237D+01
     .259093940258D-05  .353783287574D-02  .977702438831D-05  .515379446411D+04
     .323984000000D+06  .540167093277D-07 -.512740033063D+00 -.800937414169D-07
     .946269797650D+00  .181843750000D+03  .137808425568D+01 -.792211570220D-08
    -.236795577772D-09  .100000000000D+01  .149200000000D+04  .000000000000D+00
     .240000000000D+01  .000000000000D+00 -.651925802231D-08  .300000000000D+02
     .319476000000D+06  .400000000000D+01
20 08  8 13 19 59 44.0  .107548199594D-03 -.102318153949D-11  .000000000000D+00
     .310000000000D+02  .507187500000D+02  .438803992233D-08  .295647843477D+01
     .277534127235D-05  .353756826371D-02  .101197510958D-04  .515379435921D+04
     .331184000000D+06 -.335276126862D-07 -.512795779020D+00  .912696123123D-07
     .946268328880D+00  .174812500000D+03  .137797163147D+01 -.776675208783D-08
    -.338228374284D-09  .100000000000D+01  .149200000000D+04  .000000000000D+00
     .240000000000D+01  .000000000000D+00 -.651925802231D-08  .310000000000D+02
     .324006000000D+06  .400000000000D+01
 2 08  8 13 20  0  0.0  .195124186575D-03 -.272848410532D-11  .000000000000D+00
     .270000000000D+02 -.856250000000D+01  .528200573103D-08  .609111397077D+00
    -.726431608200D-06  .874080765061D-02  .569224357605D-05  .515375529861D+04
     .331200000000D+06  .147148966789D-06 -.155146451830D+01 -.614672899246D-07
     .942470968053D+00  .260843750000D+03  .262462896245D+01 -.840499295884D-08
    -.443947063606D-09  .100000000000D+01  .149200000000D+04  .000000000000D+00
     .240000000000D+01  .000000000000D+00 -.172294676304D-07  .270000000000D+02
     .324006000000D+06  .400000000000D+01
 3 08  8 13 20  0  0.0  .269189942628D-03  .522959453519D-11  .000000000000D+00
     .590000000000D+02  .937500000000D+01  .560416200727D-08  .263224795684D+00
     .698491930962D-06  .109665326308D-01  .789202749729D-05  .515369008446D+04
     .331200000000D+06 -.149011611938D-07 -.269625164977D+01  .931322574615D-07
     .926239055174D+00  .206281250000D+03  .834174821884D+00 -.856142804641D-08
     .318584698903D-09  .100000000000D+01  .149200000000D+04  .000000000000D+00
     .340000000000D+01  .000000000000D+00 -.419095158577D-08  .590000000000D+02
     .324006000000D+06  .400000000000D+01
 4 08  8 13 20  0  0.0 -.141705386341D-03 -.104591890704D-10  .000000000000D+00
     .440000000000D+02 -.812500000000D+01  .518700177373D-08 -.291034569789D+01
    -.510364770889D-06  .821468012873D-02  .600516796112D-05  .515356210899D+04
     .331200000000D+06 -.987201929092D-07 -.153269727769D+01 -.875443220139D-07
     .941758632279D+00  .253656250000D+03  .386720495387D+00 -.820034157714D-08
    -.409302763389D-09  .100000000000D+01  .149200000000D+04  .000000000000D+00
     .240000000000D+01  .000000000000D+00 -.605359673500D-08  .440000000000D+02
     .324006000000D+06  .400000000000D+01
 5 08  8 13 20  0  0.0  .618143007159D-03 -.280579115497D-09  .277555756156D-16
     .510000000000D+02 -.110187500000D+03  .469519557374D-08  .299708350204D+01
    -.574812293053D-05  .917751435190D-02  .960752367973D-05  .515371891594D+04
     .331200000000D+06  .912696123123D-07  .255506247816D+01 -.167638063431D-06
     .943583047656D+00  .181875000000D+03  .125728203539D+01 -.791782980939D-08
     .921466954226D-10  .100000000000D+01  .149200000000D+04  .000000000000D+00
     .340000000000D+01  .630000000000D+02 -.419095158577D-08  .510000000000D+02
     .324006000000D+06  .400000000000D+01
 6 08  8 13 20  0  0.0  .166915357113D-03  .113686837722D-11  .000000000000D+00
     .970000000000D+02  .121250000000D+02  .536415200989D-08  .287966287541D+01
     .750645995140D-06  .582407659385D-02  .762194395065D-05  .515371915245D+04
     .331200000000D+06  .178813934326D-06 -.263101203829D+01 -.111758708954D-06
     .933742005051D+00  .212437500000D+03 -.160433089887D+01 -.821569935971D-08
     .348585948575D-09  .100000000000D+01  .149200000000D+04  .000000000000D+00
     .240000000000D+01  .000000000000D+00 -.465661287308D-08  .970000000000D+02
     .324006000000D+06  .400000000000D+01
 7 08  8 13 20  0  0.0  .807829201221D-05  .409272615798D-11  .000000000000D+00
     .760000000000D+02 -.642812500000D+02  .462733560424D-08 -.101188829467D+01
    -.356882810593D-05  .207916274667D-02  .208616256714D-05  .515370117569D+04
     .331200000000D+06  .186264514923D-08  .160012020663D+01 -.372529029846D-07
     .963140812624D+00  .340656250000D+03  .266953479967D+01 -.830820321287D-08
     .167864135072D-10  .100000000000D+01  .149200000000D+04  .000000000000D+00
     .240000000000D+01  .000000000000D+00 -.107102096081D-07  .760000000000D+02
     .324006000000D+06  .400000000000D+01
 8 08  8 13 20  0  0.0 -.165725592524D-03 -.147792889038D-11  .000000000000D+00
     .110000000000D+03 -.710625000000D+02  .415445876417D-08 -.182137828308D+01
    -.386685132980D-05  .104568798561D-01  .327639281750D-05  .515372811890D+04
     .331200000000D+06 -.102445483208D-06  .165455225040D+01 -.184401869774D-06
     .984317379833D+00  .335218750000D+03  .289247790759D+01 -.805747848346D-08
     .700029159024D-10  .100000000000D+01  .149200000000D+04  .000000000000D+00
     .485000000000D+01  .000000000000D+00 -.372529029846D-08  .110000000000D+03
     .324006000000D+06  .400000000000D+01
 9 08  8 13 20  0  0.0  .989204272628D-05  .181898940355D-11  .000000000000D+00
     .220000000000D+02 -.741250000000D+02  .432946605392D-08 -.220023671731D+01
    -.361725687981D-05  .201783648226D-01  .124610960484D-05  .515366626358D+04
     .331200000000D+06  .229105353355D-06  .156399288583D+01  .856816768646D-07
     .972151162067D+00  .352906250000D+03  .143194630853D+01 -.794640242813D-08
     .950039572962D-10  .100000000000D+01  .149200000000D+04  .000000000000D+00
     .240000000000D+01  .000000000000D+00 -.558793544769D-08  .220000000000D+02
     .324006000000D+06  .400000000000D+01
10 08  8 13 20  0  0.0 -.382540747523D-05 -.341060513165D-12  .000000000000D+00
     .870000000000D+02  .561250000000D+02  .411088552060D-08  .150276141534D+01
     .302679836750D-05  .797475664876D-02  .100228935480D-04  .515369067955D+04
     .331200000000D+06 -.931322574615D-07 -.468935147020D+00  .167638063431D-07
     .962690140228D+00  .190812500000D+03  .557167425860D+00 -.777282376931D-08
    -.408231290186D-09  .100000000000D+01  .149200000000D+04  .000000000000D+00
     .340000000000D+01  .000000000000D+00 -.232830643654D-08  .870000000000D+02
     .324006000000D+06  .400000000000D+01
11 08  8 13 20  0  0.0  .217095948756D-04 -.682121026330D-12  .000000000000D+00
     .460000000000D+02 -.578125000000D+01  .645884046520D-08 -.139463795641D+01
    -.284984707832D-06  .830827595200D-02  .458769500256D-05  .515363279152D+04
     .331200000000D+06  .182539224625D-06 -.173720434965D+01 -.115483999252D-06
     .890356359145D+00  .254062500000D+03  .602041173980D+00 -.885858328127D-08
    -.236795577772D-09  .100000000000D+01  .149200000000D+04  .000000000000D+00
     .240000000000D+01  .000000000000D+00 -.116415321827D-07  .460000000000D+02
     .324006000000D+06  .400000000000D+01
